{
  "type": "FeatureCollection",
  "features": [
    {
      "type": "Feature",
      "properties": {
        "norad_id": 58647,
        "name": "TIANMU-1 13",
        "group": "weather",
        "lat": -0.05998398594015003,
        "lon": 17.599707877842945,
        "alt_km": 498.4860746916502,
        "timestamp": "2025-12-24T03:53:29.285565+00:00",
        "meta_object_name": "TIANMU-1 13",
        "meta_object_id": "2023-205C",
        "meta_epoch": "2025-12-23T20:00:57.803040",
        "meta_mean_motion": 15.24656737,
        "meta_eccentricity": 0.0006535,
        "meta_inclination": 97.361,
        "meta_ra_of_asc_node": 17.2695,
        "meta_arg_of_pericenter": 218.411,
        "meta_mean_anomaly": 141.6663,
        "meta_ephemeris_type": 0,
        "meta_classification_type": "U",
        "meta_norad_cat_id": 58647,
        "meta_element_set_no": 999,
        "meta_rev_at_epoch": 11076,
        "meta_bstar": 0.00025185,
        "meta_mean_motion_dot": 6.153e-05,
        "meta_mean_motion_ddot": 0,
        "tle_line1": "1 58647U 23205C   25357.83400235  .00006153  00000+0  25185-3 0  9997",
        "tle_line2": "2 58647  97.3610  17.2695 0006535 218.4110 141.6663 15.24656737110762"
      },
      "geometry": {
        "type": "Point",
        "coordinates": [
          17.599707877842945,
          -0.05998398594015003
        ]
      }
    },
    {
      "type": "Feature",
      "properties": {
        "norad_id": 58648,
        "name": "TIANMU-1 14",
        "group": "weather",
        "lat": 82.63404845360385,
        "lon": -75.4820639541378,
        "alt_km": 487.7817538650179,
        "timestamp": "2025-12-24T03:53:29.285578+00:00",
        "meta_object_name": "TIANMU-1 14",
        "meta_object_id": "2023-205D",
        "meta_epoch": "2025-12-23T21:11:44.683584",
        "meta_mean_motion": 15.24640201,
        "meta_eccentricity": 0.0007243,
        "meta_inclination": 97.3544,
        "meta_ra_of_asc_node": 16.6564,
        "meta_arg_of_pericenter": 224.3425,
        "meta_mean_anomaly": 135.7233,
        "meta_ephemeris_type": 0,
        "meta_classification_type": "U",
        "meta_norad_cat_id": 58648,
        "meta_element_set_no": 999,
        "meta_rev_at_epoch": 11077,
        "meta_bstar": 0.00026139,
        "meta_mean_motion_dot": 6.387e-05,
        "meta_mean_motion_ddot": 0,
        "tle_line1": "1 58648U 23205D   25357.88315606  .00006387  00000+0  26139-3 0  9999",
        "tle_line2": "2 58648  97.3544  16.6564 0007243 224.3425 135.7233 15.24640201110776"
      },
      "geometry": {
        "type": "Point",
        "coordinates": [
          -75.4820639541378,
          82.63404845360385
        ]
      }
    },
    {
      "type": "Feature",
      "properties": {
        "norad_id": 58660,
        "name": "TIANMU-1 19",
        "group": "weather",
        "lat": 55.4094208336509,
        "lon": -59.89974794051851,
        "alt_km": 475.8676350772075,
        "timestamp": "2025-12-24T03:53:29.285588+00:00",
        "meta_object_name": "TIANMU-1 19",
        "meta_object_id": "2023-208A",
        "meta_epoch": "2025-12-23T21:03:52.445376",
        "meta_mean_motion": 15.28043794,
        "meta_eccentricity": 0.000471,
        "meta_inclination": 97.4392,
        "meta_ra_of_asc_node": 108.8941,
        "meta_arg_of_pericenter": 205.0938,
        "meta_mean_anomaly": 155.0073,
        "meta_ephemeris_type": 0,
        "meta_classification_type": "U",
        "meta_norad_cat_id": 58660,
        "meta_element_set_no": 999,
        "meta_rev_at_epoch": 11052,
        "meta_bstar": 0.00033825,
        "meta_mean_motion_dot": 9.182e-05,
        "meta_mean_motion_ddot": 0,
        "tle_line1": "1 58660U 23208A   25357.87769034  .00009182  00000+0  33825-3 0  9999",
        "tle_line2": "2 58660  97.4392 108.8941 0004710 205.0938 155.0073 15.28043794110524"
      },
      "geometry": {
        "type": "Point",
        "coordinates": [
          -59.89974794051851,
          55.4094208336509
        ]
      }
    },
    {
      "type": "Feature",
      "properties": {
        "norad_id": 58661,
        "name": "TIANMU-1 20",
        "group": "weather",
        "lat": -65.95069009121318,
        "lon": -87.37399935017532,
        "alt_km": 481.27437927293795,
        "timestamp": "2025-12-24T03:53:29.285598+00:00",
        "meta_object_name": "TIANMU-1 20",
        "meta_object_id": "2023-208B",
        "meta_epoch": "2025-12-23T20:31:57.857664",
        "meta_mean_motion": 15.29234202,
        "meta_eccentricity": 0.0006748,
        "meta_inclination": 97.433,
        "meta_ra_of_asc_node": 109.3305,
        "meta_arg_of_pericenter": 219.6739,
        "meta_mean_anomaly": 140.4008,
        "meta_ephemeris_type": 0,
        "meta_classification_type": "U",
        "meta_norad_cat_id": 58661,
        "meta_element_set_no": 999,
        "meta_rev_at_epoch": 11059,
        "meta_bstar": 0.00033762,
        "meta_mean_motion_dot": 9.509e-05,
        "meta_mean_motion_ddot": 0,
        "tle_line1": "1 58661U 23208B   25357.85553076  .00009509  00000+0  33762-3 0  9998",
        "tle_line2": "2 58661  97.4330 109.3305 0006748 219.6739 140.4008 15.29234202110590"
      },
      "geometry": {
        "type": "Point",
        "coordinates": [
          -87.37399935017532,
          -65.95069009121318
        ]
      }
    },
    {
      "type": "Feature",
      "properties": {
        "norad_id": 58662,
        "name": "TIANMU-1 21",
        "group": "weather",
        "lat": -4.534347806908962,
        "lon": 112.19033672255458,
        "alt_km": 477.63143473858054,
        "timestamp": "2025-12-24T03:53:29.285608+00:00",
        "meta_object_name": "TIANMU-1 21",
        "meta_object_id": "2023-208C",
        "meta_epoch": "2025-12-23T20:04:20.396352",
        "meta_mean_motion": 15.31779497,
        "meta_eccentricity": 0.0006384,
        "meta_inclination": 97.4379,
        "meta_ra_of_asc_node": 111.2697,
        "meta_arg_of_pericenter": 214.1201,
        "meta_mean_anomaly": 145.9631,
        "meta_ephemeris_type": 0,
        "meta_classification_type": "U",
        "meta_norad_cat_id": 58662,
        "meta_element_set_no": 999,
        "meta_rev_at_epoch": 11069,
        "meta_bstar": 0.00035316,
        "meta_mean_motion_dot": 0.00010768,
        "meta_mean_motion_ddot": 0,
        "tle_line1": "1 58662U 23208C   25357.83634718  .00010768  00000+0  35316-3 0  9996",
        "tle_line2": "2 58662  97.4379 111.2697 0006384 214.1201 145.9631 15.31779497110696"
      },
      "geometry": {
        "type": "Point",
        "coordinates": [
          112.19033672255458,
          -4.534347806908962
        ]
      }
    },
    {
      "type": "Feature",
      "properties": {
        "norad_id": 58663,
        "name": "TIANMU-1 22",
        "group": "weather",
        "lat": 64.2619989699783,
        "lon": -55.04306883887018,
        "alt_km": 476.98189594328596,
        "timestamp": "2025-12-24T03:53:29.285629+00:00",
        "meta_object_name": "TIANMU-1 22",
        "meta_object_id": "2023-208D",
        "meta_epoch": "2025-12-23T21:06:12.467808",
        "meta_mean_motion": 15.27784218,
        "meta_eccentricity": 0.0002907,
        "meta_inclination": 97.4387,
        "meta_ra_of_asc_node": 108.9496,
        "meta_arg_of_pericenter": 229.2402,
        "meta_mean_anomaly": 130.8586,
        "meta_ephemeris_type": 0,
        "meta_classification_type": "U",
        "meta_norad_cat_id": 58663,
        "meta_element_set_no": 999,
        "meta_rev_at_epoch": 11053,
        "meta_bstar": 0.00031438,
        "meta_mean_motion_dot": 8.459e-05,
        "meta_mean_motion_ddot": 0,
        "tle_line1": "1 58663U 23208D   25357.87931097  .00008459  00000+0  31438-3 0  9996",
        "tle_line2": "2 58663  97.4387 108.9496 0002907 229.2402 130.8586 15.27784218110530"
      },
      "geometry": {
        "type": "Point",
        "coordinates": [
          -55.04306883887018,
          64.2619989699783
        ]
      }
    },
    {
      "type": "Feature",
      "properties": {
        "norad_id": 58700,
        "name": "TIANMU-1 15",
        "group": "weather",
        "lat": 66.55336666907428,
        "lon": 17.180464401120833,
        "alt_km": 488.304038307876,
        "timestamp": "2025-12-24T03:53:29.285651+00:00",
        "meta_object_name": "TIANMU-1 15",
        "meta_object_id": "2024-004A",
        "meta_epoch": "2025-12-23T21:05:57.745248",
        "meta_mean_motion": 15.2454804,
        "meta_eccentricity": 0.0006031,
        "meta_inclination": 97.4626,
        "meta_ra_of_asc_node": 179.3068,
        "meta_arg_of_pericenter": 242.7408,
        "meta_mean_anomaly": 117.3216,
        "meta_ephemeris_type": 0,
        "meta_classification_type": "U",
        "meta_norad_cat_id": 58700,
        "meta_element_set_no": 999,
        "meta_rev_at_epoch": 10904,
        "meta_bstar": 0.00027797,
        "meta_mean_motion_dot": 6.775e-05,
        "meta_mean_motion_ddot": 0,
        "tle_line1": "1 58700U 24004A   25357.87914057  .00006775  00000+0  27797-3 0  9992",
        "tle_line2": "2 58700  97.4626 179.3068 0006031 242.7408 117.3216 15.24548040109045"
      },
      "geometry": {
        "type": "Point",
        "coordinates": [
          17.180464401120833,
          66.55336666907428
        ]
      }
    }
  ]
}